{
  "type": "FeatureCollection",
  "features": [
    {
      "type": "Feature",
      "properties": {
        "norad_id": 37238,
        "name": "INTELSAT 17 (IS-17)",
        "group": "intelsat",
        "lat": -0.0031370937405631755,
        "lon": -116.25625607667519,
        "alt_km": 35778.30357269256,
        "timestamp": "2025-12-26T05:31:12.167607+00:00",
        "meta_object_name": "INTELSAT 17 (IS-17)",
        "meta_object_id": "2010-065B",
        "meta_epoch": "2025-12-25T22:03:33.893856",
        "meta_mean_motion": 1.00271494,
        "meta_eccentricity": 0.00027252,
        "meta_inclination": 0.0065,
        "meta_ra_of_asc_node": 107.0593,
        "meta_arg_of_pericenter": 183.9105,
        "meta_mean_anomaly": 200.5883,
        "meta_ephemeris_type": 0,
        "meta_classification_type": "U",
        "meta_norad_cat_id": 37238,
        "meta_element_set_no": 999,
        "meta_rev_at_epoch": 5151,
        "meta_bstar": 0,
        "meta_mean_motion_dot": 2e-07,
        "meta_mean_motion_ddot": 0,
        "tle_line1": "1 37238U 10065B   25359.91914229  .00000020  00000+0  00000+0 0  9996",
        "tle_line2": "2 37238   0.0065 107.0593 0002725 183.9105 200.5883  1.00271494 51510"
      },
      "geometry": {
        "type": "Point",
        "coordinates": [
          -116.25625607667519,
          -0.0031370937405631755
        ]
      }
    },
    {
      "type": "Feature",
      "properties": {
        "norad_id": 37392,
        "name": "INTELSAT 28 (IS-28)",
        "group": "intelsat",
        "lat": 1.2029607366564015,
        "lon": 146.02711586018992,
        "alt_km": 35795.48314278748,
        "timestamp": "2025-12-26T05:31:12.167619+00:00",
        "meta_object_name": "INTELSAT 28 (IS-28)",
        "meta_object_id": "2011-016A",
        "meta_epoch": "2025-12-25T07:46:46.230816",
        "meta_mean_motion": 1.00271849,
        "meta_eccentricity": 0.0003772,
        "meta_inclination": 1.3552,
        "meta_ra_of_asc_node": 84.9189,
        "meta_arg_of_pericenter": 187.6126,
        "meta_mean_anomaly": 266.5422,
        "meta_ephemeris_type": 0,
        "meta_classification_type": "U",
        "meta_norad_cat_id": 37392,
        "meta_element_set_no": 999,
        "meta_rev_at_epoch": 5154,
        "meta_bstar": 0,
        "meta_mean_motion_dot": -2.04e-06,
        "meta_mean_motion_ddot": 0,
        "tle_line1": "1 37392U 11016A   25359.32414619 -.00000204  00000+0  00000+0 0  9992",
        "tle_line2": "2 37392   1.3552  84.9189 0003772 187.6126 266.5422  1.00271849 51545"
      },
      "geometry": {
        "type": "Point",
        "coordinates": [
          146.02711586018992,
          1.2029607366564015
        ]
      }
    },
    {
      "type": "Feature",
      "properties": {
        "norad_id": 37834,
        "name": "INTELSAT 18 (IS-18)",
        "group": "intelsat",
        "lat": 0.010669042761807374,
        "lon": -2.2100775106231745,
        "alt_km": 35783.0449394907,
        "timestamp": "2025-12-26T05:31:12.167631+00:00",
        "meta_object_name": "INTELSAT 18 (IS-18)",
        "meta_object_id": "2011-056A",
        "meta_epoch": "2025-12-25T13:55:22.248768",
        "meta_mean_motion": 1.00271778,
        "meta_eccentricity": 0.0001891,
        "meta_inclination": 0.0194,
        "meta_ra_of_asc_node": 293.2532,
        "meta_arg_of_pericenter": 356.5598,
        "meta_mean_anomaly": 193.3649,
        "meta_ephemeris_type": 0,
        "meta_classification_type": "U",
        "meta_norad_cat_id": 37834,
        "meta_element_set_no": 999,
        "meta_rev_at_epoch": 5207,
        "meta_bstar": 0,
        "meta_mean_motion_dot": 7.4e-07,
        "meta_mean_motion_ddot": 0,
        "tle_line1": "1 37834U 11056A   25359.58011862  .00000074  00000+0  00000+0 0  9992",
        "tle_line2": "2 37834   0.0194 293.2532 0001891 356.5598 193.3649  1.00271778 52079"
      },
      "geometry": {
        "type": "Point",
        "coordinates": [
          -2.2100775106231745,
          0.010669042761807374
        ]
      }
    },
    {
      "type": "Feature",
      "properties": {
        "norad_id": 38098,
        "name": "INTELSAT 22 (IS-22)",
        "group": "intelsat",
        "lat": -0.02416257641660111,
        "lon": -110.16044666799648,
        "alt_km": 35781.00961421883,
        "timestamp": "2025-12-26T05:31:12.167643+00:00",
        "meta_object_name": "INTELSAT 22 (IS-22)",
        "meta_object_id": "2012-011A",
        "meta_epoch": "2025-12-25T21:37:38.688672",
        "meta_mean_motion": 1.00270585,
        "meta_eccentricity": 0.00019502,
        "meta_inclination": 0.0313,
        "meta_ra_of_asc_node": 50.2189,
        "meta_arg_of_pericenter": 248.7882,
        "meta_mean_anomaly": 192.1441,
        "meta_ephemeris_type": 0,
        "meta_classification_type": "U",
        "meta_norad_cat_id": 38098,
        "meta_element_set_no": 999,
        "meta_rev_at_epoch": 545,
        "meta_bstar": 0,
        "meta_mean_motion_dot": 0,
        "meta_mean_motion_ddot": 0,
        "tle_line1": "1 38098U 12011A   25359.90114223  .00000000  00000+0  00000+0 0  9997",
        "tle_line2": "2 38098   0.0313  50.2189 0001950 248.7882 192.1441  1.00270585  5450"
      },
      "geometry": {
        "type": "Point",
        "coordinates": [
          -110.16044666799648,
          -0.02416257641660111
        ]
      }
    },
    {
      "type": "Feature",
      "properties": {
        "norad_id": 38356,
        "name": "INTELSAT 19 (IS-19)",
        "group": "intelsat",
        "lat": -0.0021491645016296097,
        "lon": -16.186788898911143,
        "alt_km": 35782.226803857186,
        "timestamp": "2025-12-26T05:31:12.167655+00:00",
        "meta_object_name": "INTELSAT 19 (IS-19)",
        "meta_object_id": "2012-030A",
        "meta_epoch": "2025-12-25T13:02:38.686848",
        "meta_mean_motion": 1.00272036,
        "meta_eccentricity": 0.0002961,
        "meta_inclination": 0.0106,
        "meta_ra_of_asc_node": 331.8116,
        "meta_arg_of_pericenter": 299.4654,
        "meta_mean_anomaly": 184.6938,
        "meta_ephemeris_type": 0,
        "meta_classification_type": "U",
        "meta_norad_cat_id": 38356,
        "meta_element_set_no": 999,
        "meta_rev_at_epoch": 4871,
        "meta_bstar": 0,
        "meta_mean_motion_dot": -3.5e-07,
        "meta_mean_motion_ddot": 0,
        "tle_line1": "1 38356U 12030A   25359.54350332 -.00000035  00000+0  00000+0 0  9997",
        "tle_line2": "2 38356   0.0106 331.8116 0002961 299.4654 184.6938  1.00272036 48714"
      },
      "geometry": {
        "type": "Point",
        "coordinates": [
          -16.186788898911143,
          -0.0021491645016296097
        ]
      }
    },
    {
      "type": "Feature",
      "properties": {
        "norad_id": 38740,
        "name": "INTELSAT 20 (IS-20)",
        "group": "intelsat",
        "lat": -0.011501183721511283,
        "lon": -113.71015759627986,
        "alt_km": 35786.964107406224,
        "timestamp": "2025-12-26T05:31:12.167667+00:00",
        "meta_object_name": "INTELSAT 20 (IS-20)",
        "meta_object_id": "2012-043A",
        "meta_epoch": "2025-12-25T21:52:38.696736",
        "meta_mean_motion": 1.00262156,
        "meta_eccentricity": 0.00025061,
        "meta_inclination": 0.0123,
        "meta_ra_of_asc_node": 61.0797,
        "meta_arg_of_pericenter": 105.2286,
        "meta_mean_anomaly": 325.018,
        "meta_ephemeris_type": 0,
        "meta_classification_type": "U",
        "meta_norad_cat_id": 38740,
        "meta_element_set_no": 999,
        "meta_rev_at_epoch": 4901,
        "meta_bstar": 0,
        "meta_mean_motion_dot": -1e-08,
        "meta_mean_motion_ddot": 0,
        "tle_line1": "1 38740U 12043A   25359.91155899 -.00000001  00000+0  00000+0 0  9993",
        "tle_line2": "2 38740   0.0123  61.0797 0002506 105.2286 325.0180  1.00262156 49013"
      },
      "geometry": {
        "type": "Point",
        "coordinates": [
          -113.71015759627986,
          -0.011501183721511283
        ]
      }
    },
    {
      "type": "Feature",
      "properties": {
        "norad_id": 38749,
        "name": "INTELSAT 21 (IS-21)",
        "group": "intelsat",
        "lat": 0.02322270927769041,
        "lon": 119.77664770142665,
        "alt_km": 35792.13967339197,
        "timestamp": "2025-12-26T05:31:12.167678+00:00",
        "meta_object_name": "INTELSAT 21 (IS-21)",
        "meta_object_id": "2012-045A",
        "meta_epoch": "2025-12-25T21:21:05.325408",
        "meta_mean_motion": 1.00272118,
        "meta_eccentricity": 0.00017292,
        "meta_inclination": 0.0171,
        "meta_ra_of_asc_node": 331.8978,
        "meta_arg_of_pericenter": 294.45,
        "meta_mean_anomaly": 90.5825,
        "meta_ephemeris_type": 0,
        "meta_classification_type": "U",
        "meta_norad_cat_id": 38749,
        "meta_element_set_no": 999,
        "meta_rev_at_epoch": 4878,
        "meta_bstar": 0,
        "meta_mean_motion_dot": -2.63e-06,
        "meta_mean_motion_ddot": 0,
        "tle_line1": "1 38749U 12045A   25359.88964497 -.00000263  00000+0  00000+0 0  9992",
        "tle_line2": "2 38749   0.0171 331.8978 0001729 294.4500  90.5825  1.00272118 48782"
      },
      "geometry": {
        "type": "Point",
        "coordinates": [
          119.77664770142665,
          0.02322270927769041
        ]
      }
    }
  ]
}